ONEWEB-0198             
1 48216U 21031G   24028.74357344  .00000150  00000+0  37128-3 0  9990
2 48216  87.8961 102.9858 0001883  86.3885 273.7460 13.14500680134132
ONEWEB-0189             
1 48217U 21031H   24028.75625083 -.00000165  00000+0 -47866-3 0  9998
2 48217  87.8960 102.9594 0001867  84.7050 275.4293 13.14504714133872
ONEWEB-0183             
1 48219U 21031K   24028.70868153 -.00000006  00000+0 -51668-4 0  9992
2 48219  87.8960 102.9880 0001689 100.4047 259.7273 13.14503187133962
ONEWEB-0185             
1 48220U 21031L   24028.73484370  .00000314  00000+0  81144-3 0  9993
2 48220  87.8962 102.9562 0001561 100.0205 260.1101 13.14504690133892
ONEWEB-0187             
1 48221U 21031M   24028.70471038 -.00000063  00000+0 -20351-3 0  9994
2 48221  87.8960 102.9928 0001595  98.8669 261.2642 13.14505165133904
ONEWEB-0219             
1 48223U 21031P   24028.74040125  .00000230  00000+0  58509-3 0  9999
2 48223  87.8963 102.9575 0001573  94.9987 265.1322 13.14501295134025
